[{"OBJECT_NAME":"ONEWEB-0371","OBJECT_ID":"2021-090U","EPOCH":"2026-03-09T17:14:15.197280","MEAN_MOTION":13.19725543,"ECCENTRICITY":0.00018014,"INCLINATION":87.9232,"RA_OF_ASC_NODE":324.7846,"ARG_OF_PERICENTER":81.9176,"MEAN_ANOMALY":278.2161,"EPHEMERIS_TYPE":0,"CLASSIFICATION_TYPE":"U","NORAD_CAT_ID":49297,"ELEMENT_SET_NO":999,"REV_AT_EPOCH":21333,"BSTAR":-0.00014046442,"MEAN_MOTION_DOT":-4.3e-7,"MEAN_MOTION_DDOT":0},{"OBJECT_NAME":"COSMOS 839 DEB","OBJECT_ID":"1976-067L","EPOCH":"2026-03-09T00:44:48.685056","MEAN_MOTION":12.47201592,"ECCENTRICITY":0.0735078,"INCLINATION":65.5799,"RA_OF_ASC_NODE":279.6902,"ARG_OF_PERICENTER":195.2661,"MEAN_ANOMALY":332.1502,"EPHEMERIS_TYPE":0,"CLASSIFICATION_TYPE":"U","NORAD_CAT_ID":10417,"ELEMENT_SET_NO":999,"REV_AT_EPOCH":51744,"BSTAR":0.0002207314,"MEAN_MOTION_DOT":2.7e-7,"MEAN_MOTION_DDOT":0}]
